COSMOS 2433 [GLONASS-M] 
1 32275U 07052A   26191.84776337 -.00000062  00000+0  00000+0 0  9994
2 32275  65.5625 315.1381 0003393 203.0239 156.9646  2.13104163145568
BEIDOU-2 IGSO-1         
1 36828U 10036A   26188.62304566 -.00000058  00000+0  00000+0 0  9996
2 36828  54.3062 162.7756 0059224 225.1869 229.2421  1.00266308 58302
GSAT0101 (GALILEO-PFM)  
1 37846U 11060A   26189.55204449 -.00000074  00000+0  00000+0 0  9995
2 37846  56.9869 341.1826 0002415  60.6868 299.3373  1.70475585 91484
